ORBCOMM FM20            
1 25416U 98046D   24221.51401615  .00002211  00000+0  80967-3 0  9997
2 25416  44.9924 220.3656 0002092 294.0052  66.0576 14.35537963359307
ORBCOMM FM16            
1 25417U 98046E   24220.50348195  .00002660  00000+0  94337-3 0  9993
2 25417  44.9921 220.1972 0002419 198.8084 161.2675 14.36628471359105
ORBCOMM FM15            
1 25418U 98046F   24220.47774971  .00002415  00000+0  86579-3 0  9992
2 25418  44.9953 224.5956 0002383 207.5601 152.5120 14.36336224359104
ORBCOMM FM14            
1 25419U 98046G   24220.42116757  .00002510  00000+0  89432-3 0  9997
2 25419  44.9943 223.8422 0001211 235.1696 124.9038 14.36539147359058
ORBCOMM FM13            
1 25420U 98046H   24221.48802579  .00002821  00000+0  10151-2 0  9996
2 25420  44.9958 224.2006 0002723 171.6652 188.4241 14.35754314358261
ORBCOMM FM21            
1 25475U 98053A   24221.51403500  .00002830  00000+0  10203-2 0  9997
2 25475  45.0088 308.5409 0001698 227.3409 132.7295 14.35655244352288
ORBCOMM FM22            
1 25476U 98053B   24221.52586858  .00002821  00000+0  10050-2 0  9997
2 25476  45.0083 305.3782 0000975 168.4420 191.6450 14.36248027352283
ORBCOMM FM23            
1 25477U 98053C   24221.53925576  .00002292  00000+0  83495-3 0  9999
2 25477  45.0092 310.8156 0001086 194.0845 165.9973 14.35697282352431
